[{"OBJECT_NAME":"ONEWEB-0319","OBJECT_ID":"2021-075AG","EPOCH":"2026-03-09T20:22:25.542336","MEAN_MOTION":13.17649349,"ECCENTRICITY":0.00014603,"INCLINATION":87.9152,"RA_OF_ASC_NODE":25.5944,"ARG_OF_PERICENTER":65.9592,"MEAN_ANOMALY":294.1692,"EPHEMERIS_TYPE":0,"CLASSIFICATION_TYPE":"U","NORAD_CAT_ID":49105,"ELEMENT_SET_NO":999,"REV_AT_EPOCH":22052,"BSTAR":-9.5675641e-5,"MEAN_MOTION_DOT":-2.4e-7,"MEAN_MOTION_DDOT":0},{"OBJECT_NAME":"METEOR 3-4","OBJECT_ID":"1991-030A","EPOCH":"2026-03-09T22:37:43.485024","MEAN_MOTION":13.16698643,"ECCENTRICITY":0.00136956,"INCLINATION":82.5383,"RA_OF_ASC_NODE":254.5168,"ARG_OF_PERICENTER":49.9217,"MEAN_ANOMALY":59.7097,"EPHEMERIS_TYPE":0,"CLASSIFICATION_TYPE":"U","NORAD_CAT_ID":21232,"ELEMENT_SET_NO":999,"REV_AT_EPOCH":67604,"BSTAR":-0.00044279739,"MEAN_MOTION_DOT":-1.57e-6,"MEAN_MOTION_DDOT":0}]
